[{"OBJECT_NAME":"STARLINK-31097","OBJECT_ID":"2024-002P","EPOCH":"2026-03-09T16:17:05.788608","MEAN_MOTION":15.30182949,"ECCENTRICITY":0.00011833,"INCLINATION":53.1599,"RA_OF_ASC_NODE":229.9809,"ARG_OF_PERICENTER":87.2655,"MEAN_ANOMALY":272.8481,"EPHEMERIS_TYPE":0,"CLASSIFICATION_TYPE":"U","NORAD_CAT_ID":58718,"ELEMENT_SET_NO":999,"REV_AT_EPOCH":12201,"BSTAR":-5.1470585e-5,"MEAN_MOTION_DOT":-1.882e-5,"MEAN_MOTION_DDOT":0},{"OBJECT_NAME":"239ALFEROV (RS61S)","OBJECT_ID":"2025-155F","EPOCH":"2026-03-09T21:46:33.382848","MEAN_MOTION":15.29933217,"ECCENTRICITY":0.00084878,"INCLINATION":97.4469,"RA_OF_ASC_NODE":37.6373,"ARG_OF_PERICENTER":151.5904,"MEAN_ANOMALY":208.58,"EPHEMERIS_TYPE":0,"CLASSIFICATION_TYPE":"U","NORAD_CAT_ID":64881,"ELEMENT_SET_NO":999,"REV_AT_EPOCH":6561,"BSTAR":0.00067233359,"MEAN_MOTION_DOT":0.00019457,"MEAN_MOTION_DDOT":0}]
